[
    {
        "Altitude(m)": 611967.2087527212,
        "Argument of Periapsis(deg)": 0.0,
        "Eccentricity": 0.0,
        "Inclination(deg)": 60.0,
        "Latitude(deg)": 59.14025197011059,
        "Longitude(deg)": 71.09199320359743,
        "Mean Anomaly(deg)": 98.18179999999998,
        "RAAN(deg)": 65.0,
        "Satellite Name": "Test1 292",
        "Satellite Number": 292,
        "Semi-Major Axis(m)": 6980739.136638005,
        "Time(s)": 0
    },
    {
        "Altitude(m)": 611934.4089459139,
        "Argument of Periapsis(deg)": 0.00010418945913296404,
        "Eccentricity": 0.0,
        "Inclination(deg)": 60.0,
        "Latitude(deg)": 58.98661489770432,
        "Longitude(deg)": 72.21524227655415,
        "Mean Anomaly(deg)": 98.80190614546181,
        "RAAN(deg)": 64.99957995086025,
        "Satellite Name": "Test1 292",
        "Satellite Number": 292,
        "Semi-Major Axis(m)": 6980739.136638005,
        "Time(s)": 10
    }
]